[{"OBJECT_NAME":"STARLINK-31219","OBJECT_ID":"2024-019P","EPOCH":"2026-03-09T13:03:13.446432","MEAN_MOTION":15.27574371,"ECCENTRICITY":9.59e-5,"INCLINATION":43.0009,"RA_OF_ASC_NODE":249.4434,"ARG_OF_PERICENTER":255.0696,"MEAN_ANOMALY":105.005,"EPHEMERIS_TYPE":0,"CLASSIFICATION_TYPE":"U","NORAD_CAT_ID":58866,"ELEMENT_SET_NO":999,"REV_AT_EPOCH":11904,"BSTAR":-3.9344e-5,"MEAN_MOTION_DOT":-1.344e-5,"MEAN_MOTION_DDOT":0},{"OBJECT_NAME":"OBJECT B","OBJECT_ID":"2024-205B","EPOCH":"2026-03-09T23:46:05.115936","MEAN_MOTION":15.28158697,"ECCENTRICITY":0.00105957,"INCLINATION":97.4192,"RA_OF_ASC_NODE":146.9311,"ARG_OF_PERICENTER":34.0947,"MEAN_ANOMALY":326.0972,"EPHEMERIS_TYPE":0,"CLASSIFICATION_TYPE":"U","NORAD_CAT_ID":61895,"ELEMENT_SET_NO":999,"REV_AT_EPOCH":7352,"BSTAR":0.00054154807,"MEAN_MOTION_DOT":0.00014827,"MEAN_MOTION_DDOT":0}]
